{
"type": "FeatureCollection",
"name": "study_area",
"crs": { "type": "name", "properties": { "name": "urn:ogc:def:crs:OGC:1.3:CRS84" } },
"features": [
{ "type": "Feature", "properties": { "name": "5 km study square" }, "geometry": { "type": "Polygon", "coordinates": [ [ [ -90.1686535776645, 46.426727191294241 ], [ -90.16632194816134, 46.471670302468347 ], [ -90.231373101037633, 46.473264709093392 ], [ -90.233651373139381, 46.428319112043276 ], [ -90.1686535776645, 46.426727191294241 ] ] ] } }
]
}
